{"type": "FeatureCollection", "features": [{"type": "Feature", "properties": {"marker-color": "#7e7e7e", "marker-size": "small", "marker-symbol": "circle"}, "geometry": {"coordinates": [37.18714196948412, 19.580452836415517], "type": "Point"}}, {"type": "Feature", "properties": {"marker-color": "#7e7e7e", "marker-size": "small", "marker-symbol": "circle"}, "geometry": {"coordinates": [58.129155235789256, 23.700322422171908], "type": "Point"}}, {"type": "Feature", "properties": {"marker-color": "#7e7e7e", "marker-size": "small", "marker-symbol": "circle"}, "geometry": {"coordinates": [13.311824969586922, 38.20407527383577], "type": "Point"}}, {"type": "Feature", "properties": {"marker-color": "#7e7e7e", "marker-size": "small", "marker-symbol": "circle"}, "geometry": {"coordinates": [23.70568513204313, 37.93908318089309], "type": "Point"}}, {"type": "Feature", "properties": {"marker-color": "#7e7e7e", "marker-size": "small", "marker-symbol": "circle"}, "geometry": {"coordinates": [80.49689126486862, 5.997716027807002], "type": "Point"}}, {"type": "Feature", "properties": {"marker-color": "#7e7e7e", "marker-size": "small", "marker-symbol": "circle"}, "geometry": {"coordinates": [80.20046438169737, 12.722678608084493], "type": "Point"}}, {"type": "Feature", "properties": {"marker-color": "#7e7e7e", "marker-size": "small", "marker-symbol": "circle"}, "geometry": {"coordinates": [28.271253239391484, 36.784617635759716], "type": "Point"}}, {"type": "Feature", "properties": {"marker-color": "#7e7e7e", "marker-size": "small", "marker-symbol": "circle"}, "geometry": {"coordinates": [103.62279125113855, 1.3233276355877734], "type": "Point"}}, {"type": "Feature", "properties": {"marker-color": "#7e7e7e", "marker-size": "small", "marker-symbol": "circle"}, "geometry": {"coordinates": [79.86269700871617, 6.845413310765267], "type": "Point"}}, {"type": "Feature", "properties": {"marker-color": "#7e7e7e", "marker-size": "small", "marker-symbol": "circle"}, "geometry": {"coordinates": [80.26239979902562, 6.108233031488254], "type": "Point"}}, {"type": "Feature", "properties": {"marker-color": "#7e7e7e", "marker-size": "small", "marker-symbol": "circle"}, "geometry": {"coordinates": [7.391155276431562, 43.72391824159371], "type": "Point"}}, {"type": "Feature", "properties": {"marker-color": "#7e7e7e", "marker-size": "small", "marker-symbol": "circle"}, "geometry": {"coordinates": [6.29885613303793, 43.121816564431896], "type": "Point"}}, {"type": "Feature", "properties": {"marker-color": "#7e7e7e", "marker-size": "small", "marker-symbol": "circle"}, "geometry": {"coordinates": [5.358054538040534, 43.281045183305366], "type": "Point"}}, {"type": "Feature", "properties": {"marker-color": "#7e7e7e", "marker-size": "small", "marker-symbol": "circle"}, "geometry": {"coordinates": [5.386827798054526, 43.212062844446905], "type": "Point"}}, {"type": "Feature", "properties": {"marker-color": "#7e7e7e", "marker-size": "small", "marker-symbol": "circle"}, "geometry": {"coordinates": [-9.002601173532128, 38.467678665213725], "type": "Point"}}, {"type": "Feature", "properties": {"marker-color": "#7e7e7e", "marker-size": "small", "marker-symbol": "circle"}, "geometry": {"coordinates": [-5.3500898650375746, 36.1395496583886], "type": "Point"}}, {"type": "Feature", "properties": {"marker-color": "#7e7e7e", "marker-size": "small", "marker-symbol": "circle"}, "geometry": {"coordinates": [13.136526689217675, 32.85156425203071], "type": "Point"}}, {"type": "Feature", "properties": {"marker-color": "#7e7e7e", "marker-size": "small", "marker-symbol": "circle"}, "geometry": {"coordinates": [43.63542139026168, -23.319721071073076], "type": "Point"}}, {"type": "Feature", "properties": {"marker-color": "#7e7e7e", "marker-size": "small", "marker-symbol": "circle"}, "geometry": {"coordinates": [55.908412008995754, 25.78503981906222], "type": "Point"}}, {"type": "Feature", "properties": {"marker-color": "#7e7e7e", "marker-size": "small", "marker-symbol": "circle"}, "geometry": {"coordinates": [57.878360981179895, 23.697391165894345], "type": "Point"}}, {"type": "Feature", "properties": {"marker-color": "#7e7e7e", "marker-size": "small", "marker-symbol": "circle"}, "geometry": {"coordinates": [54.11212765897841, 17.007665412852745], "type": "Point"}}, {"type": "Feature", "properties": {"marker-color": "#7e7e7e", "marker-size": "small", "marker-symbol": "circle"}, "geometry": {"coordinates": [44.99784870729235, 10.470884124012827], "type": "Point"}}, {"type": "Feature", "properties": {"marker-color": "#7e7e7e", "marker-size": "small", "marker-symbol": "circle"}, "geometry": {"coordinates": [43.06136547939823, 11.680954135296062], "type": "Point"}}, {"type": "Feature", "properties": {"marker-color": "#7e7e7e", "marker-size": "small", "marker-symbol": "circle"}, "geometry": {"coordinates": [43.152672333317156, 11.560505024442818], "type": "Point"}}, {"type": "Feature", "properties": {"marker-color": "#7e7e7e", "marker-size": "small", "marker-symbol": "circle"}, "geometry": {"coordinates": [43.15929944368165, 11.584671142894322], "type": "Point"}}, {"type": "Feature", "properties": {"marker-color": "#7e7e7e", "marker-size": "small", "marker-symbol": "circle"}, "geometry": {"coordinates": [35.83762869545615, 34.450277345656986], "type": "Point"}}, {"type": "Feature", "properties": {"marker-color": "#7e7e7e", "marker-size": "small", "marker-symbol": "circle"}, "geometry": {"coordinates": [35.05507963336123, 28.066957648190723], "type": "Point"}}, {"type": "Feature", "properties": {"marker-color": "#854e38", "marker-size": "large", "marker-symbol": "square"}, "geometry": {"coordinates": [5.3512387264033805, 43.338508518656795], "type": "Point"}}, {"type": "Feature", "properties": {"segment": "EIG1", "color": "#7e7e7e", "cable.name": "EIG", "marker-color": "#7e7e7e", "marker-size": "small", "marker-symbol": "circle"}, "geometry": {"coordinates": [-4.631027284062299, 50.76294001589417], "type": "Point"}}, {"type": "Feature", "properties": {"segment": "EIG8", "color": "#3357FF", "cable.name": "EIG", "marker-color": "#7e7e7e", "marker-size": "small", "marker-symbol": "circle"}, "geometry": {"coordinates": [29.664199332000237, 31.085814499667848], "type": "Point"}}, {"type": "Feature", "properties": {"marker-color": "#7e7e7e", "marker-size": "small", "marker-symbol": "circle"}, "geometry": {"coordinates": [8.906840773975205, 44.419248032686454], "type": "Point"}}, {"type": "Feature", "properties": {"marker-color": "#7e7e7e", "marker-size": "small", "marker-symbol": "circle"}, "geometry": {"coordinates": [8.475687028359374, 44.31408963748632], "type": "Point"}}, {"type": "Feature", "properties": {"marker-color": "#7e7e7e", "marker-size": "small", "marker-symbol": "circle"}, "geometry": {"coordinates": [5.969070454855284, 43.09900419490927], "type": "Point"}}, {"type": "Feature", "properties": {"segment": "2Africa", "cable.name": "2Africa", "marker-color": "#7e7e7e", "marker-size": "small", "marker-symbol": "circle"}, "geometry": {"coordinates": [2.1608106742496602, 41.417927975173484], "type": "Point"}}, {"type": "Feature", "properties": {"marker-color": "#7e7e7e", "marker-size": "small", "marker-symbol": "circle"}, "geometry": {"coordinates": [32.63019141069415, 29.11934436579574], "type": "Point"}}, {"type": "Feature", "properties": {"segment": "IMEWE5", "cable.name": "IMEWE", "marker-color": "#7e7e7e", "marker-size": "small", "marker-symbol": "circle"}, "geometry": {"coordinates": [32.5256408627036, 29.975455733810875], "type": "Point"}}, {"type": "Feature", "properties": {"segment": "SV1", "cable.name": "Saudi Vision", "marker-color": "#7e7e7e", "marker-size": "small", "marker-symbol": "circle"}, "geometry": {"coordinates": [34.94361681129226, 29.30481970311284], "type": "Point"}}, {"type": "Feature", "properties": {"marker-color": "#f90606", "marker-size": "large", "marker-symbol": "circle"}, "geometry": {"coordinates": [-0.011169095302420828, 51.50007904291596], "type": "Point"}}, {"type": "Feature", "properties": {"marker-color": "#f90606", "marker-size": "large", "marker-symbol": "circle"}, "geometry": {"coordinates": [103.78979131430094, 1.3045811952172954], "type": "Point"}}, {"type": "Feature", "properties": {"marker-color": "#f90606", "marker-size": "large", "marker-symbol": "circle"}, "geometry": {"coordinates": [8.63247481264301, 50.09882695324856], "type": "Point"}}, {"type": "Feature", "properties": {"marker-color": "#f90606", "marker-size": "large", "marker-symbol": "circle"}, "geometry": {"coordinates": [8.718708469424172, 50.11209497307297], "type": "Point"}}, {"type": "Feature", "properties": {"marker-color": "#f90606", "marker-size": "large", "marker-symbol": "circle"}, "geometry": {"coordinates": [4.917061224480449, 52.3442372886031], "type": "Point"}}, {"type": "Feature", "properties": {"segment": "2Africa", "cable.name": "2Africa", "marker-color": "#7e7e7e", "marker-size": "small", "marker-symbol": "circle"}, "geometry": {"coordinates": [24.77445315466167, 35.09782581147296], "type": "Point"}}, {"type": "Feature", "properties": {"marker-color": "#f90606", "marker-size": "large", "marker-symbol": "circle"}, "geometry": {"coordinates": [31.411780707872026, 30.010351195151074], "type": "Point"}}, {"type": "Feature", "properties": {"marker-color": "#f90606", "marker-size": "large", "marker-symbol": "circle"}, "geometry": {"coordinates": [5.3512387264033805, 43.338508518656795], "type": "Point"}}, {"type": "Feature", "properties": {"segment": "2Africa", "cable.name": "2Africa", "marker-color": "#7e7e7e", "marker-size": "small", "marker-symbol": "circle"}, "geometry": {"coordinates": [2.1608106742496602, 41.417927975173484], "type": "Point"}}, {"type": "Feature", "properties": {"segment": "SMW52", "cable.name": "SMW5", "marker-color": "#7e7e7e", "marker-size": "small", "marker-symbol": "circle"}, "geometry": {"coordinates": [15.118987224320733, 37.51285163100751], "type": "Point"}}, {"type": "Feature", "properties": {"segment": "SMW56", "cable.name": "SMW5", "marker-color": "#7e7e7e", "marker-size": "small", "marker-symbol": "circle"}, "geometry": {"coordinates": [29.570522178635798, 31.013806477260488], "type": "Point"}}, {"type": "Feature", "properties": {"segment": "EIG1", "color": "#666666", "cable.name": "EIG", "marker-color": "#7e7e7e", "marker-size": "small", "marker-symbol": "circle"}, "geometry": {"coordinates": [-4.631027284062299, 50.76294001589417], "type": "Point"}}, {"type": "Feature", "properties": {"marker-color": "#854e38", "marker-size": "large", "marker-symbol": "circle"}, "geometry": {"coordinates": [8.63247481264301, 50.09882695324856], "type": "Point"}}, {"type": "Feature", "properties": {"segment": "IMEWE2", "cable.name": "IMEWE", "marker-color": "#7e7e7e", "marker-size": "small", "marker-symbol": "circle"}, "geometry": {"coordinates": [15.085459634896125, 37.49909788703815], "type": "Point"}}, {"type": "Feature", "properties": {"segment": "SMW519", "cable.name": "SMW5", "marker-color": "#7e7e7e", "marker-size": "small", "marker-symbol": "circle"}, "geometry": {"coordinates": [102.2378203460994, 2.1839958293702324], "type": "Point"}}, {"type": "Feature", "properties": {"segment": "IMEWE11", "cable.name": "IMEWE", "marker-color": "#7e7e7e", "marker-size": "small", "marker-symbol": "circle"}, "geometry": {"coordinates": [72.819127994403, 19.061519124579874], "type": "Point"}}, {"type": "Feature", "properties": {"segment": "IMEWE6", "cable.name": "IMEWE", "marker-color": "#7e7e7e", "marker-size": "small", "marker-symbol": "circle"}, "geometry": {"coordinates": [30.009052348454276, 31.287763313556027], "type": "Point"}}, {"type": "Feature", "properties": {"segment": "IMEWE4", "cable.name": "IMEWE", "marker-color": "#7e7e7e", "marker-size": "small", "marker-symbol": "circle"}, "geometry": {"coordinates": [30.01073496205828, 31.289552220441564], "type": "Point"}}, {"type": "Feature", "properties": {"segment": "2Africa", "cable.name": "2Africa", "marker-color": "#7e7e7e", "marker-size": "small", "marker-symbol": "circle"}, "geometry": {"coordinates": [38.09055436141702, 24.085088241130464], "type": "Point"}}, {"type": "Feature", "properties": {"segment": "2Africa", "cable.name": "2Africa", "marker-color": "#7e7e7e", "marker-size": "small", "marker-symbol": "circle"}, "geometry": {"coordinates": [24.77445315466167, 35.09782581147296], "type": "Point"}}, {"type": "Feature", "properties": {"segment": "2Africa", "cable.name": "2Africa", "marker-color": "#7e7e7e", "marker-size": "small", "marker-symbol": "circle"}, "geometry": {"coordinates": [39.16586970598706, 21.544447590880182], "type": "Point"}}, {"type": "Feature", "properties": {"segment": "2Africa", "cable.name": "2Africa", "marker-color": "#7e7e7e", "marker-size": "small", "marker-symbol": "circle"}, "geometry": {"coordinates": [33.06995798356604, 28.343634425318058], "type": "Point"}}, {"type": "Feature", "properties": {"segment": "2Africa", "cable.name": "2Africa", "marker-color": "#7e7e7e", "marker-size": "small", "marker-symbol": "circle"}, "geometry": {"coordinates": [25.587054241488772, -33.96226920459448], "type": "Point"}}, {"type": "Feature", "properties": {"segment": "2Africa", "cable.name": "2Africa", "marker-color": "#7e7e7e", "marker-size": "small", "marker-symbol": "circle"}, "geometry": {"coordinates": [30.71128360892459, -30.194782932754464], "type": "Point"}}, {"type": "Feature", "properties": {"segment": "2Africa", "cable.name": "2Africa", "marker-color": "#7e7e7e", "marker-size": "small", "marker-symbol": "circle"}, "geometry": {"coordinates": [40.75196290221419, -14.627359858234271], "type": "Point"}}, {"type": "Feature", "properties": {"segment": "2Africa", "cable.name": "2Africa", "marker-color": "#7e7e7e", "marker-size": "small", "marker-symbol": "circle"}, "geometry": {"coordinates": [43.270408511958465, -11.66109079335915], "type": "Point"}}, {"type": "Feature", "properties": {"segment": "2Africa", "cable.name": "2Africa", "marker-color": "#7e7e7e", "marker-size": "small", "marker-symbol": "circle"}, "geometry": {"coordinates": [39.193837437558756, -6.854365692390303], "type": "Point"}}, {"type": "Feature", "properties": {"segment": "2Africa", "cable.name": "2Africa", "marker-color": "#7e7e7e", "marker-size": "small", "marker-symbol": "circle"}, "geometry": {"coordinates": [18.46962208658286, -33.73793747586896], "type": "Point"}}, {"type": "Feature", "properties": {"segment": "2africa", "cable.name": "2Africa", "marker-color": "#7e7e7e", "marker-size": "small", "marker-symbol": "circle"}, "geometry": {"coordinates": [32.3136251939228, 31.267190324251104], "type": "Point"}}, {"type": "Feature", "properties": {"segment": "2Africa", "cable.name": "2Africa", "marker-color": "#7e7e7e", "marker-size": "small", "marker-symbol": "circle"}, "geometry": {"coordinates": [45.065817622431894, 2.0833206319960027], "type": "Point"}}, {"type": "Feature", "properties": {"segment": "2Africa", "cable.name": "2Africa", "marker-color": "#7e7e7e", "marker-size": "small", "marker-symbol": "circle"}, "geometry": {"coordinates": [32.46600900079852, -25.876931058251017], "type": "Point"}}, {"type": "Feature", "properties": {"segment": "2Africa", "cable.name": "2Africa", "marker-color": "#7e7e7e", "marker-size": "small", "marker-symbol": "circle"}, "geometry": {"coordinates": [46.450689295022556, -15.69094460489714], "type": "Point"}}, {"type": "Feature", "properties": {"segment": "2Africa", "cable.name": "2Africa", "marker-color": "#7e7e7e", "marker-size": "small", "marker-symbol": "circle"}, "geometry": {"coordinates": [39.63108499621913, -4.041370504550471], "type": "Point"}}, {"type": "Feature", "properties": {"segment": "SV1", "cable.name": "Saudi Vision", "marker-color": "#7e7e7e", "marker-size": "small", "marker-symbol": "circle"}, "geometry": {"coordinates": [34.94361681129226, 29.30481970311284], "type": "Point"}}, {"type": "Feature", "properties": {"segment": "SMW4-18", "cable.name": "SMW4", "marker-color": "#7e7e7e", "marker-size": "small", "marker-symbol": "circle"}, "geometry": {"coordinates": [103.66615434932697, 1.3264783526412032], "type": "Point"}}, {"type": "Feature", "properties": {"segment": "SMW56", "cable.name": "SMW5", "marker-color": "#7e7e7e", "marker-size": "small", "marker-symbol": "circle"}, "geometry": {"coordinates": [29.570522178635798, 31.013806477260488], "type": "Point"}}, {"type": "Feature", "properties": {"segment": "SMW59", "cable.name": "SMW5", "marker-color": "#7e7e7e", "marker-size": "small", "marker-symbol": "circle"}, "geometry": {"coordinates": [42.94656140057097, 14.833563672477965], "type": "Point"}}, {"type": "Feature", "properties": {"segment": "SMW518", "cable.name": "SMW5", "marker-color": "#7e7e7e", "marker-size": "small", "marker-symbol": "circle"}, "geometry": {"coordinates": [101.40313724322328, 1.7165184603783814], "type": "Point"}}, {"type": "Feature", "properties": {"marker-color": "#854e38", "marker-size": "large", "marker-symbol": "square"}, "geometry": {"coordinates": [-0.011169095302420828, 51.50007904291596], "type": "Point"}}, {"type": "Feature", "properties": {"marker-color": "#854e38", "marker-size": "large", "marker-symbol": "square"}, "geometry": {"coordinates": [103.78979131430094, 1.3045811952172954], "type": "Point"}}, {"type": "Feature", "properties": {"marker-color": "#854e38", "marker-size": "large", "marker-symbol": "square"}, "geometry": {"coordinates": [4.917061224480449, 52.3442372886031], "type": "Point"}}, {"type": "Feature", "properties": {"marker-color": "#7e7e7e", "marker-size": "small", "marker-symbol": "circle"}, "geometry": {"coordinates": [55.43798734555486, -4.611576609254556], "type": "Point"}}, {"type": "Feature", "properties": {"marker-color": "#854e38", "marker-size": "large", "marker-symbol": "square"}, "geometry": {"coordinates": [51.449436345864456, 25.561747376871296], "type": "Point"}}, {"type": "Feature", "properties": {"marker-color": "#854e38", "marker-size": "large", "marker-symbol": "square"}, "geometry": {"coordinates": [35.847740077569284, 31.90958543835849], "type": "Point"}}, {"type": "Feature", "properties": {"marker-color": "#854e38", "marker-size": "large", "marker-symbol": "square"}, "geometry": {"coordinates": [47.97475088820019, 29.367830677931437], "type": "Point"}}, {"type": "Feature", "properties": {"marker-color": "#f90606", "marker-size": "large", "marker-symbol": "circle"}, "geometry": {"coordinates": [8.588083233303678, 50.09859926215614], "type": "Point"}}, {"type": "Feature", "properties": {"marker-color": "#f90606", "marker-size": "large", "marker-symbol": "circle"}, "geometry": {"coordinates": [51.449436345864456, 25.561747376871296], "type": "Point"}}, {"type": "Feature", "properties": {"marker-color": "#f90606", "marker-size": "large", "marker-symbol": "circle"}, "geometry": {"coordinates": [35.847740077569284, 31.90958543835849], "type": "Point"}}, {"type": "Feature", "properties": {"segment": "IMEWE2", "cable.name": "IMEWE", "marker-color": "#7e7e7e", "marker-size": "small", "marker-symbol": "circle"}, "geometry": {"coordinates": [15.085459634896125, 37.49909788703815], "type": "Point"}}, {"type": "Feature", "properties": {"segment": "IMEWE4", "cable.name": "IMEWE", "marker-color": "#7e7e7e", "marker-size": "small", "marker-symbol": "circle"}, "geometry": {"coordinates": [30.01073496205828, 31.289552220441564], "type": "Point"}}, {"type": "Feature", "properties": {"segment": "2Africa", "cable.name": "2Africa", "marker-color": "#7e7e7e", "marker-size": "small", "marker-symbol": "circle"}, "geometry": {"coordinates": [35.7015766005118, 27.343861639415664], "type": "Point"}}, {"type": "Feature", "properties": {"segment": "2Africa", "cable.name": "2Africa", "marker-color": "#7e7e7e", "marker-size": "small", "marker-symbol": "circle"}, "geometry": {"coordinates": [33.06995798356604, 28.343634425318058], "type": "Point"}}, {"type": "Feature", "properties": {"segment": "2Africa", "cable.name": "2Africa", "marker-color": "#7e7e7e", "marker-size": "small", "marker-symbol": "circle"}, "geometry": {"coordinates": [25.587054241488772, -33.96226920459448], "type": "Point"}}, {"type": "Feature", "properties": {"segment": "2Africa", "cable.name": "2Africa", "marker-color": "#7e7e7e", "marker-size": "small", "marker-symbol": "circle"}, "geometry": {"coordinates": [30.71128360892459, -30.194782932754464], "type": "Point"}}, {"type": "Feature", "properties": {"segment": "2Africa", "cable.name": "2Africa", "marker-color": "#7e7e7e", "marker-size": "small", "marker-symbol": "circle"}, "geometry": {"coordinates": [40.75196290221419, -14.627359858234271], "type": "Point"}}, {"type": "Feature", "properties": {"segment": "2Africa", "cable.name": "2Africa", "marker-color": "#7e7e7e", "marker-size": "small", "marker-symbol": "circle"}, "geometry": {"coordinates": [43.270408511958465, -11.66109079335915], "type": "Point"}}, {"type": "Feature", "properties": {"segment": "2Africa", "cable.name": "2Africa", "marker-color": "#7e7e7e", "marker-size": "small", "marker-symbol": "circle"}, "geometry": {"coordinates": [39.193837437558756, -6.854365692390303], "type": "Point"}}, {"type": "Feature", "properties": {"segment": "2Africa", "cable.name": "2Africa", "marker-color": "#7e7e7e", "marker-size": "small", "marker-symbol": "circle"}, "geometry": {"coordinates": [18.46962208658286, -33.73793747586896], "type": "Point"}}, {"type": "Feature", "properties": {"segment": "2africa", "cable.name": "2Africa", "marker-color": "#7e7e7e", "marker-size": "small", "marker-symbol": "circle"}, "geometry": {"coordinates": [32.3136251939228, 31.267190324251104], "type": "Point"}}, {"type": "Feature", "properties": {"segment": "2Africa", "cable.name": "2Africa", "marker-color": "#7e7e7e", "marker-size": "small", "marker-symbol": "circle"}, "geometry": {"coordinates": [45.065817622431894, 2.0833206319960027], "type": "Point"}}, {"type": "Feature", "properties": {"segment": "2Africa", "cable.name": "2Africa", "marker-color": "#7e7e7e", "marker-size": "small", "marker-symbol": "circle"}, "geometry": {"coordinates": [32.46600900079852, -25.876931058251017], "type": "Point"}}, {"type": "Feature", "properties": {"segment": "2Africa", "cable.name": "2Africa", "marker-color": "#7e7e7e", "marker-size": "small", "marker-symbol": "circle"}, "geometry": {"coordinates": [46.450689295022556, -15.69094460489714], "type": "Point"}}, {"type": "Feature", "properties": {"segment": "2Africa", "cable.name": "2Africa", "marker-color": "#7e7e7e", "marker-size": "small", "marker-symbol": "circle"}, "geometry": {"coordinates": [39.63108499621913, -4.041370504550471], "type": "Point"}}, {"type": "Feature", "properties": {"segment": "SMW4-18", "cable.name": "SMW4", "marker-color": "#7e7e7e", "marker-size": "small", "marker-symbol": "circle"}, "geometry": {"coordinates": [103.66615434932697, 1.3264783526412032], "type": "Point"}}, {"type": "Feature", "properties": {"segment": "SMW59", "cable.name": "SMW5", "marker-color": "#7e7e7e", "marker-size": "small", "marker-symbol": "circle"}, "geometry": {"coordinates": [42.94656140057097, 14.833563672477965], "type": "Point"}}, {"type": "Feature", "properties": {"segment": "SMW518", "cable.name": "SMW5", "marker-color": "#7e7e7e", "marker-size": "small", "marker-symbol": "circle"}, "geometry": {"coordinates": [101.40313724322328, 1.7165184603783814], "type": "Point"}}, {"type": "Feature", "properties": {}, "geometry": {"coordinates": [43.14935877813417, 11.615687277177386], "type": "Point"}}, {"type": "Feature", "properties": {}, "geometry": {"coordinates": [56.34102834588697, 25.124292413695315], "type": "Point"}}, {"type": "Feature", "properties": {}, "geometry": {"coordinates": [56.358287278615734, 25.115307107182687], "type": "Point"}}, {"type": "Feature", "properties": {}, "geometry": {"coordinates": [48.490658019433056, 29.912029875479632], "type": "Point"}}, {"type": "Feature", "properties": {}, "geometry": {"coordinates": [50.783766788772795, 28.978714960552452], "type": "Point"}}, {"type": "Feature", "properties": {}, "geometry": {"coordinates": [54.2547693872167, 24.337312062358023], "type": "Point"}}, {"type": "Feature", "properties": {}, "geometry": {"coordinates": [51.53366421358737, 25.312409810283157], "type": "Point"}}, {"type": "Feature", "properties": {}, "geometry": {"coordinates": [51.566788974125814, 25.328016045629255], "type": "Point"}}, {"type": "Feature", "properties": {}, "geometry": {"coordinates": [50.222244273478594, 26.19979655821335], "type": "Point"}}, {"type": "Feature", "properties": {}, "geometry": {"coordinates": [50.22175324385245, 26.254863352569842], "type": "Point"}}, {"type": "Feature", "properties": {}, "geometry": {"coordinates": [50.6763525060652, 26.22693433341763], "type": "Point"}}, {"type": "Feature", "properties": {}, "geometry": {"coordinates": [50.595080316178155, 26.26001560974393], "type": "Point"}}, {"type": "Feature", "properties": {}, "geometry": {"coordinates": [7.799725192945431, 36.93875306911518], "type": "Point"}}, {"type": "Feature", "properties": {}, "geometry": {"coordinates": [9.826616057075626, 37.32505873145922], "type": "Point"}}, {"type": "Feature", "properties": {}, "geometry": {"coordinates": [12.568737056648104, 37.67099761872416], "type": "Point"}}, {"type": "Feature", "properties": {}, "geometry": {"coordinates": [66.95993578254763, 24.850851356011205], "type": "Point"}}, {"type": "Feature", "properties": {}, "geometry": {"coordinates": [90.16253900180823, 21.809509720708775], "type": "Point"}}, {"type": "Feature", "properties": {}, "geometry": {"coordinates": [91.97933649735421, 21.41737276729738], "type": "Point"}}, {"type": "Feature", "properties": {}, "geometry": {"coordinates": [94.55161592183867, 17.35264137390783], "type": "Point"}}, {"type": "Feature", "properties": {}, "geometry": {"coordinates": [99.81083049421585, 6.910059042808314], "type": "Point"}}, {"type": "Feature", "properties": {}, "geometry": {"coordinates": [100.05636830112854, 6.541313826148468], "type": "Point"}}, {"type": "Feature", "properties": {}, "geometry": {"coordinates": [98.77681804437316, 3.6555597847329295], "type": "Point"}}, {"type": "Feature", "properties": {}, "geometry": {"coordinates": [101.55002991109234, 3.013574524826069], "type": "Point"}}, {"type": "Feature", "properties": {}, "geometry": {"coordinates": [72.93215851620965, 3.9596990908180487], "type": "Point"}}]}