{"type":"FeatureCollection","features":[{"type":"Feature","properties":{"stroke":"#555555","stroke-width":2,"stroke-opacity":1,"fill":"#580094","fill-opacity":0.5,"cable.name":"2Africa"},"geometry":{"coordinates":[[[43.28338582451593,-11.39957993289849],[43.27288870845442,-11.416745467882777],[43.26952594064812,-11.45464957741035],[43.282977011875744,-11.495020105585226],[43.27372940040692,-11.525500142255396],[43.26868524869556,-11.551034925260055],[43.27204801650316,-11.568331360459837],[43.262067204567956,-11.616377459920216],[43.264589280422996,-11.64355073248224],[43.26711135627795,-11.669898036747867],[43.25450097700292,-11.687187095680287],[43.246094057485266,-11.710237495392391],[43.232642986257616,-11.733285973128702],[43.2334836782089,-11.748101835092086],[43.24139818317067,-11.768423346715878],[43.24139818317067,-11.77994539307484],[43.26409686586723,-11.789821048245443],[43.27082240148232,-11.80957129247274],[43.28427347271,-11.83919398931377],[43.30781284735903,-11.852358602392343],[43.33051153005556,-11.855649656506714],[43.352369520800806,-11.851535832665078],[43.37002405178728,-11.855649656506714],[43.386837890822505,-11.859763418343462],[43.39020065863002,-11.87704054050647],[43.418784184989136,-11.905010700427795],[43.42887248841052,-11.91076890567048],[43.44736771134819,-11.92968786318329],[43.46754431819099,-11.937913085360336],[43.482676773322424,-11.932977982000295],[43.49355881245228,-11.921576699669572],[43.51205403539126,-11.888672335343472],[43.486833276838496,-11.860700496987548],[43.45993113438186,-11.822851680896989],[43.44984283096173,-11.781705726980476],[43.44648006315421,-11.738907396394751],[43.43471037583032,-11.717505738109935],[43.41453376898758,-11.679637205497045],[43.392675778242335,-11.640116698246146],[43.387631626532254,-11.605531646648402],[43.399401313856174,-11.559411576494426],[43.401082697759875,-11.513283911986505],[43.39603854604982,-11.485274136957997],[43.407808233373714,-11.45396580182522],[43.40444546556745,-11.412765343754302],[43.39099439433974,-11.376503992074632],[43.37081778749703,-11.37320727635084],[43.34055287723419,-11.368262131225322],[43.30356243135745,-11.37980066963317],[43.28338582451593,-11.39957993289849]]],"type":"Polygon"}},{"type":"Feature","properties":{"stroke":"#555555","stroke-width":2,"stroke-opacity":1,"fill":"#ad49e4","fill-opacity":0.5,"cable.name":"SMW4"},"geometry":{"coordinates":[[[36.948351888178195,31.493368293652964],[37.164782697244036,31.306873187769277],[38.07852950370617,30.552100501633177],[37.529358776230765,29.935417596060816],[36.78986278619443,29.81431727311265],[36.169177647653626,29.146047705464085],[34.970434662774785,29.364837693339055],[34.79272207629154,28.810876632611794],[34.597973929470214,28.058978821747274],[35.21270358046584,28.068320594446295],[35.58943254306842,27.544099316956242],[35.60136949135375,27.429056296744132],[35.72167144189444,27.325328218043097],[35.93677769538671,27.072579277628716],[36.28412284770501,26.60105923830119],[37.124833758275024,25.48500003738068],[37.524229522693815,24.346549819450203],[38.550810425430065,23.69421865561589],[39.10925138380692,22.56157202097602],[39.000794424790314,21.9134044906095],[39.13212987840887,21.261570376582597],[39.80646716779576,20.288423013293016],[40.01602604813522,20.38576613029037],[40.51652148839618,20.017157578873377],[40.857616603532456,19.551778808715667],[41.67867525031083,17.99420066174562],[42.79865668431208,16.390494421746553],[43.14511721665893,16.47522043392984],[43.324421602480044,17.12093254744738],[43.33689452805163,17.491146810602118],[43.58956911283383,17.381279594735986],[44.09955011000936,17.319403547498545],[44.56774207055312,17.387235172536805],[45.51072027246647,17.316852702971616],[46.165240835146335,17.179030685550686],[46.73514443382359,17.239730768876726],[46.999465573505404,16.891636180122234],[47.195437113960494,16.90707339768857],[47.48435464537898,17.05373994654438],[47.64126548247113,17.42065112644233],[48.20494398471092,18.112878620977327],[49.11158702587434,18.555469394862172],[49.88544484043766,18.64438648246515],[51.91286720121751,18.949634353336904],[52.163794044819554,18.972314249614726],[53.75007760889679,19.478128580885766],[55.054114221647666,19.88675878355616],[55.35795742526372,20.837718200901065],[55.74577924524283,22.096574274843732],[55.40889850532726,22.653684241053107],[55.08031914633284,22.689145808183753],[52.60205048218259,22.98771997868674],[51.629430905049134,24.11438921899402],[50.93756244788415,24.56600448097859],[50.47846144937708,25.25285447751061],[50.0274043235824,25.702083816014763],[50.08078773171519,26.23959309963618],[49.886047039709496,26.752093309451965],[49.16436202638377,27.41966277654022],[48.75761884415786,27.774516343345297],[48.40149959107916,28.54535894905348],[47.74058391755821,28.540529886745674],[47.625878256810495,28.660383468929957],[47.61909054804167,28.831495091478388],[47.486065640231075,29.01171312444609],[46.58526440372632,29.11630784129524],[44.53057121914827,29.1411083597049],[42.147444306432334,30.970562098045633],[40.29966147609886,31.86599777601407],[39.288180210742524,32.036881109273025],[36.948351888178195,31.493368293652964]]],"type":"Polygon"},"id":1},{"type":"Feature","properties":{"stroke":"#555555","stroke-width":2,"stroke-opacity":1,"fill":"#580094","fill-opacity":0.5},"geometry":{"coordinates":[[[46.56703128618602,29.10624852537434],[46.86552063601113,29.07616293014196],[47.4793090235911,29.0053148617763],[47.506817390522826,28.957187418905306],[47.534325757455946,28.920368978610526],[47.590960630551194,28.850944843751137],[47.6023072025543,28.834008549573596],[47.60392534178595,28.72196401396515],[47.61363417717291,28.653827600415056],[47.64761510103102,28.633946131032758],[47.66217835411274,28.60127553917313],[47.71557694874491,28.545854361537522],[47.71557694874491,28.533060714104693],[48.42917634974884,28.540168487817297],[48.40328612204857,28.57001590017019],[48.396813565123466,28.591330298464797],[48.387104729735285,28.619742774822356],[48.387104729735285,28.656667502688705],[48.383868451273344,28.6779643174372],[48.38063217281018,28.716287673378616],[48.39195914742882,28.740409992533017],[48.32885171740841,28.753178378028124],[48.29810707201344,28.77303720797819],[48.277071262006615,28.80990786476437],[48.280309205706146,28.855267353651755],[48.29163618032473,28.87935753336768],[48.228528750304434,28.894942320629895],[48.19940201381553,28.937434585590083],[48.17351178611406,28.971415705273543],[48.16056667226391,29.020951507675576],[48.14600341918219,29.07470634619409],[48.12982202686885,29.13408698016731],[48.118498100287184,29.18817417871206],[48.0877534548934,29.264430103117775],[48.089371594123776,29.31946848921345],[48.09746229028039,29.353323516868826],[48.05215439180492,29.342039756880013],[48.029500442566615,29.354733899009318],[48.01655532871516,29.39139697931236],[47.97771998716476,29.388577211224714],[47.96477487331458,29.370246813705364],[47.925939540363316,29.347738175527837],[47.86304892123579,29.321030205911185],[47.820977301221006,29.325262634345393],[47.820977301221006,29.3732178786166],[47.7724331242824,29.364756828626],[47.71418011195556,29.353474334970954],[47.697998719642186,29.368987441514463],[47.71741639041869,29.39859680880828],[47.7465428965821,29.39859680880828],[47.793468934289194,29.45356276301193],[47.88893914893612,29.529620329206338],[47.994118198971194,29.577479113438812],[48.10253352746827,29.55636773810747],[48.16725909672016,29.51413175326934],[48.21094885596537,29.55777530041479],[48.29347395676086,29.623908599207468],[48.371144639864184,29.72513504068793],[48.40350848827384,29.848719414214017],[48.228749451293226,29.97355102668672],[48.17049643896644,30.00858792006457],[48.06369924969965,30.019797113847773],[48.015155072761075,29.980559394532193],[47.94878413728472,30.004193824417484],[47.695820394480535,30.088413327019254],[47.371507903707766,30.09683133759232],[47.274214156475296,30.046312526529235],[47.19962228359719,30.018235379922757],[47.14124603525792,29.97610475181395],[47.06989728728803,29.807403628610416],[47.014462870783575,29.716266150920504],[47.001490371152926,29.665554116706417],[46.91080252640481,29.52193938381285],[46.865398777697465,29.43159317221702],[46.77783440518863,29.32137497224602],[46.674054408140876,29.191220808555116],[46.61567815980163,29.15440811515144],[46.56703128618602,29.10624852537434]]],"type":"Polygon"}},{"type":"Feature","properties":{"stroke":"#555555","stroke-width":2,"stroke-opacity":1,"fill":"#580094","fill-opacity":0.5},"geometry":{"coordinates":[[[50.470825745008966,26.10665580890972],[50.47792312977174,26.099472344071515],[50.48241003346871,26.07798033586772],[50.48016658162075,26.063538176284936],[50.483547223591785,26.05834437334282],[50.48317331495065,26.048602874959784],[50.48616458408205,26.04625135749086],[50.47793859397137,26.0307973551123],[50.471956055709796,26.019373522947134],[50.47345169027545,26.005932296780585],[50.46623466230315,25.99577220207928],[50.45426958577997,25.98165603822528],[50.45613912898682,25.970227425930034],[50.459130398117026,25.956108195256732],[50.46660857094429,25.939297378763058],[50.47969537339202,25.929882273332495],[50.48866918078494,25.92685582966554],[50.49913866806321,25.916094492462932],[50.510729835945284,25.905332192254406],[50.515216739641204,25.8982688990817],[50.516338465565696,25.90499585454927],[50.520825369261644,25.901632424756954],[50.527555724806575,25.883804646304668],[50.55131051843469,25.8486531938467],[50.55392787892495,25.825432507759956],[50.559162599903146,25.813652157281112],[50.56028432582761,25.808603076934617],[50.56589295544802,25.799514190067242],[50.570753766299845,25.81095929986172],[50.58122320825848,25.821057044470805],[50.59543173662962,25.81432531038695],[50.61001417364295,25.812642317080346],[50.623100976089546,25.819710728266074],[50.628709605710014,25.829134620224835],[50.627587879786574,25.841922987873204],[50.623100976089546,25.85470997324464],[50.613379413668525,25.864503435048746],[50.605527332200126,25.87526945807828],[50.6085186013315,25.909915931815178],[50.60403169763555,25.910252255491557],[50.61375332231077,25.936146297871943],[50.61113596182054,25.938500019622182],[50.613379449012285,25.963076170334546],[50.61824026134937,25.99433605094839],[50.623474982328645,26.03197132281487],[50.631264910486635,26.039949727982446],[50.62154328581147,26.043309204773436],[50.61967374260459,26.06816634084356],[50.62752582407302,26.075555283238145],[50.62864754999646,26.099062451921213],[50.61705638211441,26.100405576057952],[50.63917529120283,26.11490881557843],[50.66983579979416,26.149820293776287],[50.69974849110318,26.22028278767911],[50.688129078094875,26.260901936563783],[50.67616400157169,26.289065147457805],[50.659711861729534,26.321243316796426],[50.63765125189002,26.341015040591856],[50.604747291450735,26.305825732414903],[50.57633023470737,26.293423143414685],[50.58941703715513,26.275654961593958],[50.5927822149265,26.266937500210815],[50.58806902120304,26.26228120042792],[50.55387306081849,26.239644431886262],[50.52700480623014,26.24183527965434],[50.51560615276901,26.247677338469416],[50.49687979351057,26.263741485632664],[50.44395747596451,26.244026060769414],[50.4382581492346,26.219194503056087],[50.452913560828165,26.201663152809786],[50.44802843808557,26.171707641960523],[50.450471006684296,26.1483223923495],[50.470825745008966,26.10665580890972]]],"type":"Polygon"}},{"type":"Feature","properties":{"stroke":"#555555","stroke-width":2,"stroke-opacity":1,"fill":"#580094","fill-opacity":0.5},"geometry":{"coordinates":[[[51.004625969195274,25.95898649964542],[51.00268101046632,25.933728556203747],[50.98312581350905,25.891710073456835],[50.98421221333933,25.874116497484508],[50.969002615706586,25.861408396068185],[50.95922501722711,25.830121095063262],[50.98939953102669,25.833516018038097],[50.99442861665847,25.80069435125364],[50.98437044539307,25.77126029930747],[50.96551137426971,25.76673133535165],[50.95293866018744,25.764466788567844],[50.954195931596786,25.78258195300677],[50.931565040102726,25.80635391088184],[50.907676883345715,25.787110314634106],[50.91899232602043,25.740686442340362],[50.89133235503914,25.713503072756552],[50.84858513294117,25.636559657010736],[50.81463880492055,25.615021188719098],[50.79577973379719,25.594612742536526],[50.825954239243885,25.539038759515975],[50.79326518263079,25.534500971216076],[50.76560521165132,25.510674766323135],[50.75303249756908,25.427813567716896],[50.76814588121346,25.340231842247974],[50.76311679558171,25.28681398121293],[50.76563133839852,25.225411213402523],[50.77317496684711,25.154873493301324],[50.7694031526228,25.111620523359548],[50.787004952336815,25.100235617666883],[50.80447000381801,25.07629164456496],[50.812013632268474,25.035289195910025],[50.7981836655876,24.9944727993131],[50.82081455093527,24.962561927572665],[50.82710090797633,24.939763380623248],[50.854760878957705,24.915820365238417],[50.86376710659033,24.890693745761297],[50.8549662067324,24.83936119502441],[50.872568006446414,24.79942115190724],[50.86111273017573,24.766530715469443],[50.81836550229721,24.751688631867353],[50.934034471852385,24.54828827261116],[51.00695621352722,24.502534796922674],[51.09747975491791,24.476219003695093],[51.30618680868059,24.48880550473649],[51.34139040811064,24.50939888082604],[51.37928825510281,24.568498674085532],[51.399139508290006,24.60624229475961],[51.395530189528216,24.630851567575093],[51.42891170679388,24.650808846805134],[51.43883733338683,24.660649626741602],[51.45598159750335,24.71885835665921],[51.47853983975989,24.746723327493783],[51.4897128123136,24.80274440358602],[51.506857076428815,24.84860531545452],[51.53212230775736,24.869073451759675],[51.591196240755664,24.948746221008506],[51.61916846115622,24.990054814099054],[51.62458243929757,25.015814533870923],[51.65841980268303,25.03053194805898],[51.640232471754814,25.03856576643345],[51.61617345158504,25.04557207544957],[51.60929944582247,25.06736692085201],[51.62132895590801,25.089157889109146],[51.61961045446702,25.120281113221722],[51.62304745734764,25.142840495679195],[51.61015869654358,25.163840311825126],[51.62046970518688,25.187169200649777],[51.61789195302603,25.2120484257901],[51.6058624429418,25.226040755405805],[51.59898843717926,25.242363105459617],[51.629921463111515,25.254020584959093],[51.61015255722799,25.300644887985882],[51.57062702409209,25.295983821677723],[51.52852373879534,25.292876344574864],[51.5182127301521,25.303752165949902],[51.53281998208047,25.315403783483916],[51.54313099072368,25.327054245540154],[51.52852372847866,25.33482059744638],[51.533679232800324,25.382184547844474],[51.534538483520095,25.41788934512458],[51.511294901016186,25.46449798028452],[51.488954382287375,25.47535835567156],[51.49410988660904,25.491647079816516],[51.477784122923026,25.504831572961052],[51.48208037652478,25.524993292330365],[51.495828388049944,25.56143088021453],[51.48723588084641,25.572282488553967],[51.49668763876983,25.600182107944278],[51.52332441110039,25.61335466643331],[51.54910193271101,25.62342681991022],[51.55617936846838,25.653882557321765],[51.57851988719719,25.67556800668801],[51.59570490160425,25.71970119344445],[51.580238388638094,25.73905269144882],[51.558757120629224,25.74369658223958],[51.575082884316515,25.77310367496058],[51.59742340304524,25.79399376107402],[51.58883089584168,25.817974136041514],[51.58711239440069,25.84272297920431],[51.57716981722325,25.87309974353606],[51.583184572265964,25.8916532092843],[51.59349558091046,25.909430877912],[51.5780290679443,25.918705119804486],[51.54795529273187,25.927205867378873],[51.5145043771073,25.949603100617296],[51.471541841089476,25.95114833137535],[51.44232731659818,25.94805784957805],[51.41139429066584,25.957329051585347],[51.39764627914067,25.975096814105626],[51.397303548391875,26.008419875820834],[51.3569187645362,26.04702522920566],[51.35434101237544,26.061691931884],[51.35777801525606,26.099508111655936],[51.297630464832395,26.133455081977857],[51.270134441780726,26.14271163488145],[51.24521617089118,26.15505256369579],[51.23060890864616,26.13731206820411],[51.21772014784085,26.138854827022286],[51.19108337551029,26.136540681150507],[51.185927871187346,26.12496926388893],[51.16272810173879,26.111853605336023],[51.158431848136985,26.091019828727966],[51.11718781356021,26.0670949911665],[51.11117305851738,26.077900361990828],[51.08195853402606,26.06092004592918],[51.042433000890185,26.043165265557235],[51.03641824584872,25.98679533155787],[51.02438873576324,25.969029336280514],[51.004625969195274,25.95898649964542]]],"type":"Polygon"}},{"type":"Feature","properties":{"stroke":"#555555","stroke-width":2,"stroke-opacity":1,"fill":"#580094","fill-opacity":0.5,"cable.name":"SMW4"},"geometry":{"coordinates":[[[51.59665824839155,24.213436532367766],[51.612409971856124,24.10940475312171],[52.59317571771405,22.97079617874489],[55.1326537432447,22.652393688065956],[55.19662044413951,22.805791484463924],[55.183827103960795,23.08853357097921],[55.324553845929245,23.34719253355759],[55.41410722718274,23.435256960323926],[55.54204062897247,23.68738277549008],[55.50366060843507,23.7576569353854],[55.51005727852558,23.862997050873645],[55.47825245459845,23.975099151758997],[55.759705938536484,24.08610203937505],[55.830069309520695,24.056900052098484],[55.9899860617584,24.091941638807285],[55.932416030952965,24.185339004243048],[55.778895948804575,24.173668066045835],[55.708532577820364,24.243677673740507],[55.78529261889395,24.301989605392606],[55.810879299252576,24.395232961264426],[55.740515928268394,24.55824324244614],[55.76610260862583,24.633854706082005],[55.80448262916323,24.686174323122273],[55.804482752105315,24.934765732126024],[55.855656112821435,24.992756334510446],[55.93241615389505,25.039129128478493],[56.07314289586347,25.027537572134364],[56.08593623604216,24.899958263270022],[56.03476287532726,24.8477286538983],[56.09872957622221,24.78386251413548],[56.16909294720631,24.830313880863926],[56.24585298827995,24.87674782881959],[56.290629678906726,24.963764448844913],[56.35459637980151,24.992756334510446],[56.36738971998028,25.07389722372676],[56.36099304989088,25.322779184183446],[56.303423019085415,25.599997740960305],[56.15629960702762,25.611534634853925],[56.12431625657959,25.836281066677728],[56.171129251479584,25.979121291339837],[56.14926531418803,26.05275077982732],[56.09515071178774,26.03530082872841],[55.996382854789886,25.836281066677728],[55.79168941192546,25.68649728805731],[55.63177265968892,25.530753014753614],[55.5422192784354,25.548067948814477],[55.47825257754059,25.449916958087314],[55.04967568154575,24.99372255400806],[54.988907315696224,24.967630369420803],[54.86279125192897,24.890026061842704],[54.70927116978058,24.820376083813713],[54.664494479155024,24.727448512730987],[54.482189381603916,24.585018619007982],[54.42461935079848,24.538475741466257],[54.32448917959232,24.429846915928763],[54.47800945785417,24.36576700359315],[54.471612787764826,24.26958631363496],[54.39165441164596,24.228760362563392],[54.260522674812194,24.222927014432315],[54.196555973916105,24.190838824677684],[53.911365733008864,24.06223728474143],[53.706672290145605,24.04179278903389],[53.585135558445245,24.02718758491126],[53.55955349889922,24.056394478903243],[53.49558679800441,24.08559658127578],[53.43801676719892,24.106034095528102],[53.33567004576673,24.091436203738766],[53.278100014961154,24.06223543122354],[53.207736643977,24.10895347423184],[53.102191587499476,24.123549369141188],[53.02223321138064,24.114792031935238],[52.97381313511687,24.1381426315496],[52.90344976413266,24.120629355591916],[52.837612245755906,24.127843779055553],[52.73846385936662,24.134654338927362],[52.668100488382294,24.134654338927362],[52.58814211226351,24.184263612358563],[52.58814211226351,24.12881668748227],[52.473002050652525,24.079185898078507],[52.32268030354945,23.979866690325892],[52.19154856671449,23.950640562580148],[52.07001183501416,23.956486318212043],[51.942078433224424,23.985711120506295],[51.91969008791111,23.95356347351766],[51.78216168098672,24.003242819432373],[51.78216168098672,24.061664558577803],[51.75337666558397,24.152165694214162],[51.76617000576391,24.201768165412005],[51.73418665531591,24.230937079217355],[51.69260829973439,24.19885090676236],[51.64463327406355,24.187181204706647],[51.59665824839155,24.213436532367766]]],"type":"Polygon"},"id":27},{"type":"Feature","properties":{"stroke":"#555555","stroke-width":2,"stroke-opacity":1,"fill":"#580094","fill-opacity":0.5,"cable.name":"SMW5"},"geometry":{"coordinates":[[[47.21003031078246,16.92609278387141],[46.992047608875055,16.92277449187236],[46.735666493334975,17.255357619653154],[46.35475740738957,17.209881368320325],[45.39793652990096,17.32155012521892],[45.20031457844465,17.418643699195087],[44.63627612425614,17.41165430147919],[44.55936178959507,17.383694037588384],[44.46413451810801,17.415149033767563],[44.15647717945964,17.39767470395178],[44.108863543716836,17.338249499340478],[44.06491249533943,17.383694037588384],[44.01363627223114,17.369712303141085],[43.95488202928124,17.394693111629266],[43.87911118530113,17.375681445446773],[43.768395763895256,17.39862012380189],[43.67477051842644,17.396799073337476],[43.60342648736753,17.39767470395178],[43.51552439061004,17.4850296231795],[43.412971944394826,17.53393007272524],[43.343382784461994,17.51646713811425],[43.27013103716499,17.48153623033285],[43.25914327506996,17.38019870408013],[43.32528891174573,17.3188283213983],[43.315713318954664,17.281249556959807],[43.233505163515844,17.236832698891746],[43.19687928986801,17.166857592501586],[43.18222894040886,17.128360020603623],[43.27745621189453,17.047839350890897],[43.2371677508813,16.984798952313255],[43.16391543816255,16.889666973298773],[43.2347809750697,16.806846445589002],[43.19042980614887,16.735951054987595],[43.19789077320496,16.693264221375472],[43.17812040296954,16.65209330015358],[43.17124061289209,16.63365813469683],[43.14560250133928,16.500257536224666],[43.05037522985228,16.496745747977087],[42.96979830782573,16.46864914813429],[42.91869588471593,16.42768507027975],[42.80180268136698,16.407409018661937],[42.77934376485305,16.356222074396598],[42.833027867896305,15.93968612984834],[42.6974027285743,15.743975309190219],[42.74043223163119,15.563534373963705],[42.79855729133908,15.27403068921123],[42.86636986100007,15.115100335659037],[42.963244960515,14.609477777523495],[43.1666826694962,13.971114190294387],[43.282932788915474,13.717149984818988],[43.24418274910846,13.415799552270585],[43.341057848623365,13.0102652606667],[43.583245597411604,12.745838096271513],[43.90293342581214,12.604066674794737],[44.36793390348407,12.660784707397895],[44.49387153285477,12.793077653870839],[44.648871692077535,12.793077653870839],[45.00730956028508,12.736389126362937],[45.13324718965393,12.99138688420392],[45.39480995834481,13.076328248254953],[45.66606023698694,13.349828413408332],[45.9495239721154,13.416209162026334],[46.656712198575576,13.425632117639879],[46.879524927461176,13.53867866314718],[47.33483789518189,13.64225751510557],[47.56733813401698,13.839872548946914],[47.78046335295127,13.952720240317745],[47.99358857188372,14.10309790055743],[48.24546383062318,13.990323892365808],[48.72983932819963,14.084306092334117],[48.9318770796109,14.321959496880169],[49.16437731844778,14.565873339125474],[49.66812783592505,14.800151763944399],[50.17187835340408,14.84697722567978],[50.782191480349326,15.080951818552265],[51.58047938077587,15.33048056245012],[51.87110467932061,15.479911721312405],[52.22954254752818,15.591914361475958],[52.11329242810885,15.936869710495912],[52.248917567430794,16.22543102386058],[52.44266776646063,16.429960671075605],[52.72360555505415,16.522857737018214],[53.09173093321121,16.634275246140405],[52.82048065456905,17.245904914677368],[52.694543025200176,17.264407927863658],[52.7332930650054,17.338401394664857],[51.977667288788695,18.976841207630912],[50.81516609460596,18.766005523338748],[49.11846977123059,18.586705234789676],[48.20784383578743,18.13618588449239],[47.62659323869789,17.44437105443373],[47.48128058942464,17.08358026124199],[47.21003031078246,16.92609278387141]]],"type":"Polygon"},"id":34},{"type":"Feature","properties":{"stroke":"#555555","stroke-width":2,"stroke-opacity":1,"fill":"#ad4ae4","fill-opacity":0.5,"cable.name":"2Africa"},"geometry":{"coordinates":[[[43.28338582451593,-11.39957993289849],[43.27288870845442,-11.416745467882777],[43.26952594064812,-11.45464957741035],[43.282977011875744,-11.495020105585226],[43.27372940040692,-11.525500142255396],[43.26868524869556,-11.551034925260055],[43.27204801650316,-11.568331360459837],[43.262067204567956,-11.616377459920216],[43.264589280422996,-11.64355073248224],[43.26711135627795,-11.669898036747867],[43.25450097700292,-11.687187095680287],[43.246094057485266,-11.710237495392391],[43.232642986257616,-11.733285973128702],[43.2334836782089,-11.748101835092086],[43.24139818317067,-11.768423346715878],[43.24139818317067,-11.77994539307484],[43.26409686586723,-11.789821048245443],[43.27082240148232,-11.80957129247274],[43.28427347271,-11.83919398931377],[43.30781284735903,-11.852358602392343],[43.33051153005556,-11.855649656506714],[43.352369520800806,-11.851535832665078],[43.37002405178728,-11.855649656506714],[43.386837890822505,-11.859763418343462],[43.39020065863002,-11.87704054050647],[43.418784184989136,-11.905010700427795],[43.42887248841052,-11.91076890567048],[43.44736771134819,-11.92968786318329],[43.46754431819099,-11.937913085360336],[43.482676773322424,-11.932977982000295],[43.49355881245228,-11.921576699669572],[43.51205403539126,-11.888672335343472],[43.486833276838496,-11.860700496987548],[43.45993113438186,-11.822851680896989],[43.44984283096173,-11.781705726980476],[43.44648006315421,-11.738907396394751],[43.43471037583032,-11.717505738109935],[43.41453376898758,-11.679637205497045],[43.392675778242335,-11.640116698246146],[43.387631626532254,-11.605531646648402],[43.399401313856174,-11.559411576494426],[43.401082697759875,-11.513283911986505],[43.39603854604982,-11.485274136957997],[43.407808233373714,-11.45396580182522],[43.40444546556745,-11.412765343754302],[43.39099439433974,-11.376503992074632],[43.37081778749703,-11.37320727635084],[43.34055287723419,-11.368262131225322],[43.30356243135745,-11.37980066963317],[43.28338582451593,-11.39957993289849]]],"type":"Polygon"}},{"type":"Feature","properties":{"stroke":"#555555","stroke-width":2,"stroke-opacity":1,"fill":"#ad4ae4","fill-opacity":0.5,"cable.name":"SMW4"},"geometry":{"coordinates":[[[103.71896004693508,1.4518745326762854],[103.67443450667656,1.4233453330944599],[103.66674386093825,1.4054902663296076],[103.64331829833134,1.360749139908009],[103.62270783159073,1.3230717659580478],[103.61799686776538,1.299523115611393],[103.61976347919921,1.2859825419885311],[103.61093042202464,1.2765629700987233],[103.60504171724335,1.2441829301055094],[103.60504171724335,1.2229885062584316],[103.64449603928898,1.2118024926752753],[103.64331829833134,1.248892779049953],[103.64272942785334,1.2677320901057385],[103.663339894594,1.2877487078561103],[103.67688391559392,1.3001118345629408],[103.70397195759551,1.2989343965233786],[103.74165966820732,1.299523115611393],[103.76168126446817,1.2889261510868977],[103.81007585731766,1.251212773580093],[103.83009745358027,1.2364944806767681],[103.84423034505818,1.2453254662737976],[103.86071871845132,1.2706407936093456],[103.88633599942511,1.2933378797500978],[103.92284596907916,1.302168671220727],[103.95876706825533,1.3145317272561527],[103.98467736930104,1.3168865881500835],[104.01186657534936,1.3092334946016848],[104.03306591256785,1.355152975469764],[104.04248784022042,1.3675157651074272],[104.05190976787287,1.3751688887220297],[104.08253103274569,1.3892976677465612],[104.08606425561516,1.4087246007613743],[104.0719313641356,1.427562684161444],[104.05066846594457,1.4352155765382406],[104.0312357401616,1.438747688251027],[104.01239188485494,1.4275626491312323],[103.99884786385496,1.4152001741825444],[103.98530384285323,1.4169662460802783],[103.95821580085169,1.4175549364142057],[103.93760533411279,1.426973961351024],[103.91438106396419,1.4202634827513805],[103.89200398578964,1.4255616827946511],[103.86727142570169,1.4367467316794205],[103.85196079326619,1.4532298616727104],[103.82075065791537,1.470890224564343],[103.802084899529,1.4689461800740133],[103.76910815274437,1.4477537096606028],[103.75615300222239,1.4353913435782033],[103.73848688787325,1.440689508688024],[103.71896004693508,1.4518745326762854]]],"type":"Polygon"}},{"type":"Feature","properties":{"stroke":"#ffdd40","stroke-width":6,"stroke-opacity":1},"geometry":{"coordinates":[[103.78991315011785,1.3045636108776222],[103.75824908687855,1.3188920099603507],[103.73075134774962,1.3248899200170996],[103.69958724340358,1.3302213834349317],[103.6660899975571,1.3268892201459863]],"type":"LineString"}},{"type":"Feature","properties":{"stroke":"#ffdd40","stroke-width":6,"stroke-opacity":1},"geometry":{"coordinates":[[103.78960807135121,1.3045504886446935],[103.73644577570184,1.3138806183504386],[103.68111699151552,1.3157133183127598],[103.64228685080701,1.3172127990991385],[103.62128857729033,1.321211410113861]],"type":"LineString"}},{"type":"Feature","properties":{"stroke":"#555555","stroke-width":2,"stroke-opacity":1,"fill":"#ad4ae4","fill-opacity":0.5},"geometry":{"coordinates":[[[4.4946712629600825,52.33359534382123],[4.5443819851314515,52.317510805502025],[4.588244387048547,52.326447382049224],[4.620410148453772,52.317510805502025],[4.579471906664935,52.26385343711962],[4.567775266154143,52.23162781337106],[4.60871350794298,52.22088073682036],[4.690589991519602,52.23341873989955],[4.7315282333083815,52.21729779989303],[4.781238955479836,52.23879108597143],[4.828025517524054,52.244162781797286],[4.883584559951885,52.26564306327168],[4.924522801740778,52.29247878836418],[4.965461043528535,52.29247878836418],[5.0005509650619615,52.30320852866839],[5.026868406211804,52.321085652706586],[5.0297925663400065,52.353246283459015],[5.0297925663400065,52.4424586938006],[5.023944246084625,52.53860560236254],[5.009323445445631,52.56883058223568],[4.965461043528535,52.579493251825426],[4.944991922635211,52.57771632029065],[4.93621944225157,52.59548239476706],[4.880660399823711,52.59903474548321],[4.848494638418487,52.57771632029065],[4.79585975611883,52.56705321853963],[4.778314795352628,52.5492756196746],[4.749073194074583,52.52793299123687],[4.696438311774983,52.52615397052142],[4.643803429475298,52.520816476017444],[4.597016867431108,52.5225957129129],[4.4946712629600825,52.33359534382123]]],"type":"Polygon"}},{"type":"Feature","properties":{"pop_est":3424386,"continent":"Asia","name":"Oman","iso_a3":"OMN","gdp_md_est":173100,"stroke":"#555555","stroke-width":2,"stroke-opacity":1,"fill":"#580094","fill-opacity":0.5},"geometry":{"type":"MultiPolygon","coordinates":[[[[55.208341098863194,22.708329982997046],[55.234489373602884,23.110992743415324],[55.525841098864475,23.524869289640932],[55.52863162620824,23.933604030853502],[55.98121382022046,24.13054291431783],[55.804118686756226,24.269604193615265],[55.88623253766801,24.920830593357447],[56.396847365144005,24.924732163995486],[56.845140415276006,24.241673081961505],[57.4034525897574,23.878594468678813],[58.13694786970825,23.74793060962881],[58.72921146020542,23.56566783293536],[59.18050174341033,22.992395331305474],[59.45009769067703,22.6602709009656],[59.80806033716286,22.533611965418217],[59.806148309168066,22.310524807214193],[59.442191196536385,21.714540513592027],[59.28240766788991,21.43388580981485],[58.86114139184656,21.114034532144302],[58.48798587426694,20.428985907467094],[58.034318475176605,20.481437486243337],[57.826372511634105,20.24300242764863],[57.665762160070955,19.73600495043307],[57.788700392493325,19.067570298737678],[57.694390903560645,18.94470958096376],[57.234263950433814,18.947991034414287],[56.60965091332193,18.574267076079465],[56.51218916201947,18.087113348863966],[56.28352094912793,17.876066799383963],[55.66149173363064,17.884128322821496],[55.26993940615512,17.632309068263197],[55.27490034365513,17.22835439703762],[54.79100223167404,16.95069692633338],[54.23925296409371,17.044980577049913],[53.570508253804576,16.707662665264706],[53.10857262554751,16.651051133688952],[52.78218427919205,17.349742336491232],[52.00000980002224,19.000003363516058],[54.99998172386236,19.999994004796108],[55.666659376859826,22.00000112557234],[55.208341098863194,22.708329982997046]]],[[[56.261041701080956,25.71460643157677],[56.07082075381456,26.05546417897398],[56.36201744977927,26.39593435312898],[56.48567915225374,26.309117946878633],[56.39142133975335,25.895990708921246],[56.261041701080956,25.71460643157677]]]]},"id":68}]}