{"type": "FeatureCollection", "features": [{"type": "Feature", "properties": {"name": "Amman"}, "geometry": {"type": "Point", "coordinates": [35.84544, 31.8906]}}, {"type": "Feature", "properties": {"name": "Amsterdam"}, "geometry": {"type": "Point", "coordinates": [4.94522, 52.29341]}}, {"type": "Feature", "properties": {"name": "Angola"}, "geometry": {"type": "Point", "coordinates": [13.23498889, -8.8209]}}, {"type": "Feature", "properties": {"name": "Bahrain"}, "geometry": {"type": "Point", "coordinates": [50.5418197, 26.23584146]}}, {"type": "Feature", "properties": {"name": "Bahrain STC/C3"}, "geometry": {"type": "Point", "coordinates": [50.55120539, 26.23588141]}}, {"type": "Feature", "properties": {"name": "Benin"}, "geometry": {"type": "Point", "coordinates": [2.439611111, 6.356722222]}}, {"type": "Feature", "properties": {"name": "Botswana"}, "geometry": {"type": "Point", "coordinates": [25.88320651, -24.68974608]}}, {"type": "Feature", "properties": {"name": "Botswana"}, "geometry": {"type": "Point", "coordinates": [25.9042946, -24.65249452]}}, {"type": "Feature", "properties": {"name": "Burkina Faso"}, "geometry": {"type": "Point", "coordinates": [-1.513905556, 12.36717778]}}, {"type": "Feature", "properties": {"name": "Burkina Faso"}, "geometry": {"type": "Point", "coordinates": [-1.519861111, 12.3585]}, "id": 265}, {"type": "Feature", "properties": {"name": "Burundi"}, "geometry": {"type": "Point", "coordinates": [29.35923656, -3.360875718]}}, {"type": "Feature", "properties": {"name": "Cairo"}, "geometry": {"type": "Point", "coordinates": [31.42909, 30.01832]}}, {"type": "Feature", "properties": {"name": "Cameroon"}, "geometry": {"type": "Point", "coordinates": [9.698447354, 4.054538507]}}, {"type": "Feature", "properties": {"name": "Cameroon"}, "geometry": {"type": "Point", "coordinates": [9.7315629, 4.0468314]}}, {"type": "Feature", "properties": {"name": "Cape Verde"}, "geometry": {"type": "Point", "coordinates": [14.916017, -23.510979]}, "id": 270}, {"type": "Feature", "properties": {"name": "Congo"}, "geometry": {"type": "Point", "coordinates": [15.25044722, -4.190805556]}}, {"type": "Feature", "properties": {"name": "Congo"}, "geometry": {"type": "Point", "coordinates": [11.85747222, -4.783063889]}}, {"type": "Feature", "properties": {"name": "Cote d' Ivoire"}, "geometry": {"type": "Point", "coordinates": [-3.980827778, 5.367308333]}}, {"type": "Feature", "properties": {"name": "Cote d' Ivoire"}, "geometry": {"type": "Point", "coordinates": [-3.999325, 5.292602778]}, "id": 274}, {"type": "Feature", "properties": {"name": "Democratic Republic of Congo"}, "geometry": {"type": "Point", "coordinates": [15.28955825, -4.32323914]}}, {"type": "Feature", "properties": {"name": "Democratic Republic of Congo"}, "geometry": {"type": "Point", "coordinates": [27.48056, -11.664158]}}, {"type": "Feature", "properties": {"name": "Djibouti"}, "geometry": {"type": "Point", "coordinates": [43.1609, 11.57306944]}}, {"type": "Feature", "properties": {"name": "Djibouti"}, "geometry": {"type": "Point", "coordinates": [43.16093, 11.57308]}}, {"type": "Feature", "properties": {"name": "Egypt"}, "geometry": {"type": "Point", "coordinates": [30.0195, 31.07258]}}, {"type": "Feature", "properties": {"name": "Egypt"}, "geometry": {"type": "Point", "coordinates": [29.901938, 31.192313]}}, {"type": "Feature", "properties": {"name": "Egypt"}, "geometry": {"type": "Point", "coordinates": [31.49161084, 30.00875592]}}, {"type": "Feature", "properties": {"name": "Equatorial Guinea"}, "geometry": {"type": "Point", "coordinates": [8.735997222222222, 3.750863888888889]}}, {"type": "Feature", "properties": {"name": "France"}, "geometry": {"type": "Point", "coordinates": [5.373694284, 43.31084315]}}, {"type": "Feature", "properties": {"name": "France"}, "geometry": {"type": "Point", "coordinates": [2.368459969, 48.90372346]}}, {"type": "Feature", "properties": {"name": "Frankfurt"}, "geometry": {"type": "Point", "coordinates": [8.73518, 50.11893]}}, {"type": "Feature", "properties": {"name": "Frankfurt"}, "geometry": {"type": "Point", "coordinates": [8.73676, 50.12049]}}, {"type": "Feature", "properties": {"name": "Gambia"}, "geometry": {"type": "Point", "coordinates": [-16.68101206, 13.45585426]}, "id": 287}, {"type": "Feature", "properties": {"name": "Germany"}, "geometry": {"type": "Point", "coordinates": [8.676340381, 50.11299822]}}, {"type": "Feature", "properties": {"name": "Germany"}, "geometry": {"type": "Point", "coordinates": [8.632270731, 50.09883514]}}, {"type": "Feature", "properties": {"name": "Ghana"}, "geometry": {"type": "Point", "coordinates": [0.209586111, 5.571427778]}}, {"type": "Feature", "properties": {"name": "Guinea"}, "geometry": {"type": "Point", "coordinates": [-13.71441075, 9.511847294]}}, {"type": "Feature", "properties": {"name": "India"}, "geometry": {"type": "Point", "coordinates": [77.08088302, 28.49439984]}}, {"type": "Feature", "properties": {"name": "Jordan"}, "geometry": {"type": "Point", "coordinates": [35.86583381, 31.97612407]}}, {"type": "Feature", "properties": {"name": "Kenya"}, "geometry": {"type": "Point", "coordinates": [36.866645, -1.328237]}}, {"type": "Feature", "properties": {"name": "Kenya"}, "geometry": {"type": "Point", "coordinates": [36.80909972, -1.268229138]}, "id": 295}, {"type": "Feature", "properties": {"name": "Kuwait"}, "geometry": {"type": "Point", "coordinates": [47.97492, 29.36818]}}, {"type": "Feature", "properties": {"name": "Lebanon"}, "geometry": {"type": "Point", "coordinates": [35.48360428, 33.89647074]}}, {"type": "Feature", "properties": {"name": "Lebanon"}, "geometry": {"type": "Point", "coordinates": [35.50968855, 33.89256117]}}, {"type": "Feature", "properties": {"name": "Lesotho"}, "geometry": {"type": "Point", "coordinates": [27.48744693, -29.31726825]}}, {"type": "Feature", "properties": {"name": "Liberia"}, "geometry": {"type": "Point", "coordinates": [-10.78783333, 6.3455]}, "id": 300}, {"type": "Feature", "properties": {"name": "London"}, "geometry": {"type": "Point", "coordinates": [-0.01074, 51.49973]}}, {"type": "Feature", "properties": {"name": "Madagascar"}, "geometry": {"type": "Point", "coordinates": [47.489425, -18.88721944]}, "id": 302}, {"type": "Feature", "properties": {"name": "Mali"}, "geometry": {"type": "Point", "coordinates": [-7.972908333, 12.66577222]}, "id": 304}, {"type": "Feature", "properties": {"name": "Manama"}, "geometry": {"type": "Point", "coordinates": [50.59382, 26.23352]}}, {"type": "Feature", "properties": {"name": "Manama"}, "geometry": {"type": "Point", "coordinates": [50.5566, 26.19003]}}, {"type": "Feature", "properties": {"name": "Mauritania"}, "geometry": {"type": "Point", "coordinates": [-15.97741111, 18.09375556]}, "id": 307}, {"type": "Feature", "properties": {"name": "Mauritius"}, "geometry": {"type": "Point", "coordinates": [57.54321639, -20.10360634]}}, {"type": "Feature", "properties": {"name": "Mauritius"}, "geometry": {"type": "Point", "coordinates": [57.49163054, -20.24516366]}, "id": 309}, {"type": "Feature", "properties": {"name": "Morocco"}, "geometry": {"type": "Point", "coordinates": [-7.650480556, 33.52481944]}}, {"type": "Feature", "properties": {"name": "Morocco"}, "geometry": {"type": "Point", "coordinates": [-7.552023, 33.602931]}, "id": 311}, {"type": "Feature", "properties": {"name": "Mozambique"}, "geometry": {"type": "Point", "coordinates": [32.5938943, -25.97692059]}}, {"type": "Feature", "properties": {"name": "Muscat"}, "geometry": {"type": "Point", "coordinates": [57.79442, 23.72686]}}, {"type": "Feature", "properties": {"name": "Niger"}, "geometry": {"type": "Point", "coordinates": [2.105094444, 13.53499167]}, "id": 314}, {"type": "Feature", "properties": {"name": "Nigeria"}, "geometry": {"type": "Point", "coordinates": [3.588380556, 6.449430556]}}, {"type": "Feature", "properties": {"name": "Nigeria"}, "geometry": {"type": "Point", "coordinates": [3.417525726, 6.426740948]}, "id": 316}, {"type": "Feature", "properties": {"name": "North Sudan"}, "geometry": {"type": "Point", "coordinates": [32.51977778, 15.5835]}, "id": 317}, {"type": "Feature", "properties": {"name": "Qatar"}, "geometry": {"type": "Point", "coordinates": [51.43835, 25.3243]}}, {"type": "Feature", "properties": {"name": "Rwanda"}, "geometry": {"type": "Point", "coordinates": [30.08968711, -1.944407204]}}, {"type": "Feature", "properties": {"name": "Rwanda"}, "geometry": {"type": "Point", "coordinates": [30.0809, -1.9392]}}, {"type": "Feature", "properties": {"name": "Senegal"}, "geometry": {"type": "Point", "coordinates": [17.46180278, 14.69441667]}, "id": 321}, {"type": "Feature", "properties": {"name": "Sierra Leone"}, "geometry": {"type": "Point", "coordinates": [-13.23354855, 8.489943729]}}, {"type": "Feature", "properties": {"name": "Singapore"}, "geometry": {"type": "Point", "coordinates": [103.8937702, 1.336908649]}}, {"type": "Feature", "properties": {"name": "Singapore"}, "geometry": {"type": "Point", "coordinates": [103.78985, 1.29531]}}, {"type": "Feature", "properties": {"name": "South Africa"}, "geometry": {"type": "Point", "coordinates": [18.46432764, -33.97046201]}}, {"type": "Feature", "properties": {"name": "South Africa"}, "geometry": {"type": "Point", "coordinates": [18.67900448, -33.90724701]}}, {"type": "Feature", "properties": {"name": "South Africa"}, "geometry": {"type": "Point", "coordinates": [30.99179258, -29.77841251]}}, {"type": "Feature", "properties": {"name": "South Africa"}, "geometry": {"type": "Point", "coordinates": [28.19752192, -26.13790678]}}, {"type": "Feature", "properties": {"name": "South Africa"}, "geometry": {"type": "Point", "coordinates": [28.15216545, -25.92779839]}}, {"type": "Feature", "properties": {"name": "Swaziland"}, "geometry": {"type": "Point", "coordinates": [31.13853943, -26.32350189]}}, {"type": "Feature", "properties": {"name": "Tanzania"}, "geometry": {"type": "Point", "coordinates": [39.27905, -6.786263889]}, "id": 331}, {"type": "Feature", "properties": {"name": "Tanzania"}, "geometry": {"type": "Point", "coordinates": [-6.812858, 39.28977]}, "id": 332}, {"type": "Feature", "properties": {"name": "Togo"}, "geometry": {"type": "Point", "coordinates": [1.191036253, 6.170800862]}, "id": 333}, {"type": "Feature", "properties": {"name": "UAE"}, "geometry": {"type": "Point", "coordinates": [56.33632, 25.13079]}}, {"type": "Feature", "properties": {"name": "UAE"}, "geometry": {"type": "Point", "coordinates": [55.1854, 25.028]}}, {"type": "Feature", "properties": {"name": "Uganda"}, "geometry": {"type": "Point", "coordinates": [32.59500167, 0.320122112]}}, {"type": "Feature", "properties": {"name": "Uganda"}, "geometry": {"type": "Point", "coordinates": [32.60437774, 0.321869154]}, "id": 337}, {"type": "Feature", "properties": {"name": "United Arab Emirates"}, "geometry": {"type": "Point", "coordinates": [55.19979718, 25.02100309]}}, {"type": "Feature", "properties": {"name": "United Arab Emirates"}, "geometry": {"type": "Point", "coordinates": [56.336567, 25.130328]}}, {"type": "Feature", "properties": {"name": "United Kingdom"}, "geometry": {"type": "Point", "coordinates": [-0.000553348, 51.51211366]}}, {"type": "Feature", "properties": {"name": "United Kingdom"}, "geometry": {"type": "Point", "coordinates": [-0.00127796, 51.51171911]}}, {"type": "Feature", "properties": {"name": "United Kingdom"}, "geometry": {"type": "Point", "coordinates": [-0.073077213, 51.52026183]}}, {"type": "Feature", "properties": {"name": "United States of America"}, "geometry": {"type": "Point", "coordinates": [-74.0651392, 40.7846151]}}, {"type": "Feature", "properties": {"name": "United States of America"}, "geometry": {"type": "Point", "coordinates": [-87.63140002, 41.87616623]}}, {"type": "Feature", "properties": {"name": "Zambia"}, "geometry": {"type": "Point", "coordinates": [28.22445903, -15.41998381]}}, {"type": "Feature", "properties": {"name": "Zambia"}, "geometry": {"type": "Point", "coordinates": [28.3196, -15.3689]}}, {"type": "Feature", "properties": {"name": "Zimbabwe"}, "geometry": {"type": "Point", "coordinates": [31.04601818, -17.82696849]}}, {"type": "Feature", "properties": {"name": "Zimbabwe"}, "geometry": {"type": "Point", "coordinates": [31.05265894, -17.83142364]}}]}