{"type":"FeatureCollection","features":[{"type":"Feature","properties":{},"geometry":{"coordinates":[[[36.948351888178195,31.493368293652964],[37.164782697244036,31.306873187769277],[38.07852950370617,30.552100501633177],[37.529358776230765,29.935417596060816],[36.78986278619443,29.81431727311265],[36.169177647653626,29.146047705464085],[34.970434662774785,29.364837693339055],[34.79272207629154,28.810876632611794],[34.597973929470214,28.058978821747274],[35.21270358046584,28.068320594446295],[35.58943254306842,27.544099316956242],[35.60136949135375,27.429056296744132],[35.72167144189444,27.325328218043097],[35.93677769538671,27.072579277628716],[36.28412284770501,26.60105923830119],[37.124833758275024,25.48500003738068],[37.524229522693815,24.346549819450203],[38.550810425430065,23.69421865561589],[39.10925138380692,22.56157202097602],[39.000794424790314,21.9134044906095],[39.13212987840887,21.261570376582597],[39.80646716779576,20.288423013293016],[40.01602604813522,20.38576613029037],[40.51652148839618,20.017157578873377],[40.857616603532456,19.551778808715667],[41.67867525031083,17.99420066174562],[42.79865668431208,16.390494421746553],[43.14511721665893,16.47522043392984],[43.324421602480044,17.12093254744738],[43.33689452805163,17.491146810602118],[43.58956911283383,17.381279594735986],[44.09955011000936,17.319403547498545],[44.56774207055312,17.387235172536805],[45.51072027246647,17.316852702971616],[46.165240835146335,17.179030685550686],[46.73514443382359,17.239730768876726],[46.999465573505404,16.891636180122234],[47.195437113960494,16.90707339768857],[47.48435464537898,17.05373994654438],[47.64126548247113,17.42065112644233],[48.20494398471092,18.112878620977327],[49.11158702587434,18.555469394862172],[49.88544484043766,18.64438648246515],[51.91286720121751,18.949634353336904],[52.163794044819554,18.972314249614726],[53.75007760889679,19.478128580885766],[55.054114221647666,19.88675878355616],[55.35795742526372,20.837718200901065],[55.74577924524283,22.096574274843732],[55.40889850532726,22.653684241053107],[55.08031914633284,22.689145808183753],[52.60205048218259,22.98771997868674],[51.629430905049134,24.11438921899402],[50.93756244788415,24.56600448097859],[50.47846144937708,25.25285447751061],[50.0274043235824,25.702083816014763],[50.22652634943776,26.195335250229164],[50.242809569166035,26.374581840528652],[50.215653340921946,26.427686697929715],[50.22459435948542,26.4923799006441],[50.21162139985337,26.528741740107996],[50.11562279450658,26.5024155794531],[50.08622363058245,26.48387529772394],[50.04549175237199,26.515084162284708],[50.08246361026462,26.537988048162116],[50.08614891077913,26.594600458084393],[50.01924632995048,26.607288790398428],[49.987817716255826,26.69914835715069],[50.041388719886626,26.667540071803597],[50.11440521115957,26.69224144794203],[49.975389766042056,26.849415511432426],[49.8198126085222,26.881060636839905],[49.16436202638377,27.41966277654022],[48.75761884415786,27.774516343345297],[48.40149959107916,28.54535894905348],[47.74058391755821,28.540529886745674],[47.625878256810495,28.660383468929957],[47.61909054804167,28.831495091478388],[47.486065640231075,29.01171312444609],[46.58526440372632,29.11630784129524],[44.53057121914827,29.1411083597049],[42.147444306432334,30.970562098045633],[40.29966147609886,31.86599777601407],[39.288180210742524,32.036881109273025],[36.948351888178195,31.493368293652964]]],"type":"Polygon"},"id":0},{"type":"Feature","properties":{"stroke":"#555555","stroke-width":2,"stroke-opacity":1,"fill":"#580094","fill-opacity":0.5,"cable.name":"2Africa"},"geometry":{"coordinates":[[[43.28338582451593,-11.39957993289849],[43.27288870845442,-11.416745467882777],[43.26952594064812,-11.45464957741035],[43.282977011875744,-11.495020105585226],[43.27372940040692,-11.525500142255396],[43.26868524869556,-11.551034925260055],[43.27204801650316,-11.568331360459837],[43.262067204567956,-11.616377459920216],[43.264589280422996,-11.64355073248224],[43.26711135627795,-11.669898036747867],[43.25450097700292,-11.687187095680287],[43.246094057485266,-11.710237495392391],[43.232642986257616,-11.733285973128702],[43.2334836782089,-11.748101835092086],[43.24139818317067,-11.768423346715878],[43.24139818317067,-11.77994539307484],[43.26409686586723,-11.789821048245443],[43.27082240148232,-11.80957129247274],[43.28427347271,-11.83919398931377],[43.30781284735903,-11.852358602392343],[43.33051153005556,-11.855649656506714],[43.352369520800806,-11.851535832665078],[43.37002405178728,-11.855649656506714],[43.386837890822505,-11.859763418343462],[43.39020065863002,-11.87704054050647],[43.418784184989136,-11.905010700427795],[43.42887248841052,-11.91076890567048],[43.44736771134819,-11.92968786318329],[43.46754431819099,-11.937913085360336],[43.482676773322424,-11.932977982000295],[43.49355881245228,-11.921576699669572],[43.51205403539126,-11.888672335343472],[43.486833276838496,-11.860700496987548],[43.45993113438186,-11.822851680896989],[43.44984283096173,-11.781705726980476],[43.44648006315421,-11.738907396394751],[43.43471037583032,-11.717505738109935],[43.41453376898758,-11.679637205497045],[43.392675778242335,-11.640116698246146],[43.387631626532254,-11.605531646648402],[43.399401313856174,-11.559411576494426],[43.401082697759875,-11.513283911986505],[43.39603854604982,-11.485274136957997],[43.407808233373714,-11.45396580182522],[43.40444546556745,-11.412765343754302],[43.39099439433974,-11.376503992074632],[43.37081778749703,-11.37320727635084],[43.34055287723419,-11.368262131225322],[43.30356243135745,-11.37980066963317],[43.28338582451593,-11.39957993289849]]],"type":"Polygon"}},{"type":"Feature","properties":{},"geometry":{"coordinates":[[[50.470825745008966,26.10665580890972],[50.47792312977174,26.099472344071515],[50.48241003346871,26.07798033586772],[50.48016658162075,26.063538176284936],[50.483547223591785,26.05834437334282],[50.48317331495065,26.048602874959784],[50.48616458408205,26.04625135749086],[50.47793859397137,26.0307973551123],[50.471956055709796,26.019373522947134],[50.47345169027545,26.005932296780585],[50.46623466230315,25.99577220207928],[50.45426958577997,25.98165603822528],[50.45613912898682,25.970227425930034],[50.459130398117026,25.956108195256732],[50.46660857094429,25.939297378763058],[50.47969537339202,25.929882273332495],[50.48866918078494,25.92685582966554],[50.49913866806321,25.916094492462932],[50.510729835945284,25.905332192254406],[50.515216739641204,25.8982688990817],[50.516338465565696,25.90499585454927],[50.520825369261644,25.901632424756954],[50.527555724806575,25.883804646304668],[50.55131051843469,25.8486531938467],[50.55392787892495,25.825432507759956],[50.559162599903146,25.813652157281112],[50.56028432582761,25.808603076934617],[50.56589295544802,25.799514190067242],[50.570753766299845,25.81095929986172],[50.58122320825848,25.821057044470805],[50.59543173662962,25.81432531038695],[50.61001417364295,25.812642317080346],[50.623100976089546,25.819710728266074],[50.628709605710014,25.829134620224835],[50.627587879786574,25.841922987873204],[50.623100976089546,25.85470997324464],[50.613379413668525,25.864503435048746],[50.605527332200126,25.87526945807828],[50.6085186013315,25.909915931815178],[50.60403169763555,25.910252255491557],[50.61375332231077,25.936146297871943],[50.61113596182054,25.938500019622182],[50.613379449012285,25.963076170334546],[50.61824026134937,25.99433605094839],[50.623474982328645,26.03197132281487],[50.631264910486635,26.039949727982446],[50.62154328581147,26.043309204773436],[50.61967374260459,26.06816634084356],[50.62752582407302,26.075555283238145],[50.62864754999646,26.099062451921213],[50.61705638211441,26.100405576057952],[50.63917529120283,26.11490881557843],[50.66983579979416,26.149820293776287],[50.69974849110318,26.22028278767911],[50.688129078094875,26.260901936563783],[50.67616400157169,26.289065147457805],[50.659711861729534,26.321243316796426],[50.63765125189002,26.341015040591856],[50.604747291450735,26.305825732414903],[50.57633023470737,26.293423143414685],[50.58941703715513,26.275654961593958],[50.5927822149265,26.266937500210815],[50.58806902120304,26.26228120042792],[50.55387306081849,26.239644431886262],[50.52700480623014,26.24183527965434],[50.51560615276901,26.247677338469416],[50.49687979351057,26.263741485632664],[50.44395747596451,26.244026060769414],[50.4382581492346,26.219194503056087],[50.452913560828165,26.201663152809786],[50.44802843808557,26.171707641960523],[50.450471006684296,26.1483223923495],[50.470825745008966,26.10665580890972]]],"type":"Polygon"},"id":2},{"type":"Feature","properties":{"stroke":"#555555","stroke-width":2,"stroke-opacity":1,"fill":"#ad4ae4","fill-opacity":0.5,"cable.name":"2Africa"},"geometry":{"coordinates":[[[43.28338582451593,-11.39957993289849],[43.27288870845442,-11.416745467882777],[43.26952594064812,-11.45464957741035],[43.282977011875744,-11.495020105585226],[43.27372940040692,-11.525500142255396],[43.26868524869556,-11.551034925260055],[43.27204801650316,-11.568331360459837],[43.262067204567956,-11.616377459920216],[43.264589280422996,-11.64355073248224],[43.26711135627795,-11.669898036747867],[43.25450097700292,-11.687187095680287],[43.246094057485266,-11.710237495392391],[43.232642986257616,-11.733285973128702],[43.2334836782089,-11.748101835092086],[43.24139818317067,-11.768423346715878],[43.24139818317067,-11.77994539307484],[43.26409686586723,-11.789821048245443],[43.27082240148232,-11.80957129247274],[43.28427347271,-11.83919398931377],[43.30781284735903,-11.852358602392343],[43.33051153005556,-11.855649656506714],[43.352369520800806,-11.851535832665078],[43.37002405178728,-11.855649656506714],[43.386837890822505,-11.859763418343462],[43.39020065863002,-11.87704054050647],[43.418784184989136,-11.905010700427795],[43.42887248841052,-11.91076890567048],[43.44736771134819,-11.92968786318329],[43.46754431819099,-11.937913085360336],[43.482676773322424,-11.932977982000295],[43.49355881245228,-11.921576699669572],[43.51205403539126,-11.888672335343472],[43.486833276838496,-11.860700496987548],[43.45993113438186,-11.822851680896989],[43.44984283096173,-11.781705726980476],[43.44648006315421,-11.738907396394751],[43.43471037583032,-11.717505738109935],[43.41453376898758,-11.679637205497045],[43.392675778242335,-11.640116698246146],[43.387631626532254,-11.605531646648402],[43.399401313856174,-11.559411576494426],[43.401082697759875,-11.513283911986505],[43.39603854604982,-11.485274136957997],[43.407808233373714,-11.45396580182522],[43.40444546556745,-11.412765343754302],[43.39099439433974,-11.376503992074632],[43.37081778749703,-11.37320727635084],[43.34055287723419,-11.368262131225322],[43.30356243135745,-11.37980066963317],[43.28338582451593,-11.39957993289849]]],"type":"Polygon"}},{"type":"Feature","properties":{"stroke":"#555555","stroke-width":2,"stroke-opacity":1,"fill":"#ad4ae4","fill-opacity":0.5,"cable.name":"SMW4"},"geometry":{"coordinates":[[[103.71896004693508,1.4518745326762854],[103.67443450667656,1.4233453330944599],[103.66674386093825,1.4054902663296076],[103.64331829833134,1.360749139908009],[103.62270783159073,1.3230717659580478],[103.61799686776538,1.299523115611393],[103.61976347919921,1.2859825419885311],[103.61093042202464,1.2765629700987233],[103.60504171724335,1.2441829301055094],[103.60504171724335,1.2229885062584316],[103.64449603928898,1.2118024926752753],[103.64331829833134,1.248892779049953],[103.64272942785334,1.2677320901057385],[103.663339894594,1.2877487078561103],[103.67688391559392,1.3001118345629408],[103.70397195759551,1.2989343965233786],[103.74165966820732,1.299523115611393],[103.76168126446817,1.2889261510868977],[103.81007585731766,1.251212773580093],[103.83009745358027,1.2364944806767681],[103.84423034505818,1.2453254662737976],[103.86071871845132,1.2706407936093456],[103.88633599942511,1.2933378797500978],[103.92284596907916,1.302168671220727],[103.95876706825533,1.3145317272561527],[103.98467736930104,1.3168865881500835],[104.01186657534936,1.3092334946016848],[104.03306591256785,1.355152975469764],[104.04248784022042,1.3675157651074272],[104.05190976787287,1.3751688887220297],[104.08253103274569,1.3892976677465612],[104.08606425561516,1.4087246007613743],[104.0719313641356,1.427562684161444],[104.05066846594457,1.4352155765382406],[104.0312357401616,1.438747688251027],[104.01239188485494,1.4275626491312323],[103.99884786385496,1.4152001741825444],[103.98530384285323,1.4169662460802783],[103.95821580085169,1.4175549364142057],[103.93760533411279,1.426973961351024],[103.91438106396419,1.4202634827513805],[103.89200398578964,1.4255616827946511],[103.86727142570169,1.4367467316794205],[103.85196079326619,1.4532298616727104],[103.82075065791537,1.470890224564343],[103.802084899529,1.4689461800740133],[103.76910815274437,1.4477537096606028],[103.75615300222239,1.4353913435782033],[103.73848688787325,1.440689508688024],[103.71896004693508,1.4518745326762854]]],"type":"Polygon"}},{"type":"Feature","properties":{"stroke":"#ffdd40","stroke-width":6,"stroke-opacity":1},"geometry":{"coordinates":[[103.78991315011785,1.3045636108776222],[103.75824908687855,1.3188920099603507],[103.73075134774962,1.3248899200170996],[103.69958724340358,1.3302213834349317],[103.6660899975571,1.3268892201459863]],"type":"LineString"}},{"type":"Feature","properties":{"stroke":"#ffdd40","stroke-width":6,"stroke-opacity":1},"geometry":{"coordinates":[[103.78960807135121,1.3045504886446935],[103.73644577570184,1.3138806183504386],[103.68111699151552,1.3157133183127598],[103.64228685080701,1.3172127990991385],[103.62128857729033,1.321211410113861]],"type":"LineString"}},{"type":"Feature","properties":{"Site Name: ":"MKDC34"},"geometry":{"coordinates":[39.948356,21.484524],"type":"Point"},"id":7},{"type":"Feature","properties":{"Site Name: ":"JDC04"},"geometry":{"coordinates":[39.212331,21.464801],"type":"Point"},"id":9},{"type":"Feature","properties":{"Site Name: ":"JDC55"},"geometry":{"coordinates":[39.212147,21.461326],"type":"Point"},"id":10},{"type":"Feature","properties":{"Site Name: ":"JDC203"},"geometry":{"coordinates":[39.212401,21.46232],"type":"Point"},"id":11},{"type":"Feature","properties":{"Site Name: ":"MDC20"},"geometry":{"coordinates":[39.524556,24.416306],"type":"Point"},"id":12},{"type":"Feature","properties":{"Site Name: ":"QDC26"},"geometry":{"coordinates":[44.027944,26.250167],"type":"Point"},"id":13},{"type":"Feature","properties":{"Site Name: ":"RDC46"},"geometry":{"coordinates":[46.693287,24.752927],"type":"Point"},"id":14},{"type":"Feature","properties":{"Site Name: ":"RDC05"},"geometry":{"coordinates":[46.685885,24.752417],"type":"Point"},"id":15},{"type":"Feature","properties":{"Site Name: ":"RDC301"},"geometry":{"coordinates":[46.76312,24.710304],"type":"Point"},"id":16},{"type":"Feature","properties":{"Site Name: ":"RDC102"},"geometry":{"coordinates":[46.807517,24.901531],"type":"Point"},"id":17},{"type":"Feature","properties":{"Site Name: ":"RDC103"},"geometry":{"coordinates":[46.884139,24.829778],"type":"Point"},"id":18},{"type":"Feature","properties":{"Site Name: ":"RDC104"},"geometry":{"coordinates":[46.794107,24.704214],"type":"Point"},"id":19},{"type":"Feature","properties":{"Site Name: ":"ITCC"},"geometry":{"coordinates":[46.634494,24.743046],"type":"Point"},"id":20},{"type":"Feature","properties":{"Site Name: ":"KAFD"},"geometry":{"coordinates":[46.633574,24.769094],"type":"Point"},"id":21},{"type":"Feature","properties":{"Site Name: ":"DDC21"},"geometry":{"coordinates":[50.08571,26.410626],"type":"Point"},"id":22},{"type":"Feature","properties":{"Site Name: ":"DDC352"},"geometry":{"coordinates":[50.084249,26.410837],"type":"Point"},"id":23},{"type":"Feature","properties":{"Site Name: ":"DDC371"},"geometry":{"coordinates":[50.203557,26.206479],"type":"Point"},"id":24}]}